CCSDS_OMM_VERS = 2.0
CREATION_DATE  = 
ORIGINATOR     = 

OBJECT_NAME    = HULIANWANG DIGUI-129
OBJECT_ID      = 2025-311B
CENTER_NAME    = EARTH
REF_FRAME      = TEME
TIME_SYSTEM    = UTC
MEAN_ELEMENT_THEORY = SGP/SGP4

EPOCH          = 2026-01-14T04:45:10.114272
MEAN_MOTION    = 13.90166706
ECCENTRICITY   = .00078046
INCLINATION    = 50.0092
RA_OF_ASC_NODE = 319.1603
ARG_OF_PERICENTER = 343.1464
MEAN_ANOMALY   = 16.9175

EPHEMERIS_TYPE = 0
CLASSIFICATION_TYPE = U
NORAD_CAT_ID   = 67237
ELEMENT_SET_NO = 999
REV_AT_EPOCH   = 268
BSTAR          = .85742024E-4
MEAN_MOTION_DOT = -.4E-6
MEAN_MOTION_DDOT = 0

CCSDS_OMM_VERS = 2.0
CREATION_DATE  = 
ORIGINATOR     = 

OBJECT_NAME    = HULIANWANG DIGUI-130
OBJECT_ID      = 2025-311C
CENTER_NAME    = EARTH
REF_FRAME      = TEME
TIME_SYSTEM    = UTC
MEAN_ELEMENT_THEORY = SGP/SGP4

EPOCH          = 2026-01-14T04:54:47.488320
MEAN_MOTION    = 13.90218315
ECCENTRICITY   = .00077625
INCLINATION    = 50.0072
RA_OF_ASC_NODE = 319.1899
ARG_OF_PERICENTER = 320.5877
MEAN_ANOMALY   = 39.4456

EPHEMERIS_TYPE = 0
CLASSIFICATION_TYPE = U
NORAD_CAT_ID   = 67238
ELEMENT_SET_NO = 999
REV_AT_EPOCH   = 268
BSTAR          = .91902197E-4
MEAN_MOTION_DOT = -.32E-6
MEAN_MOTION_DDOT = 0

CCSDS_OMM_VERS = 2.0
CREATION_DATE  = 
ORIGINATOR     = 

OBJECT_NAME    = HULIANWANG DIGUI-131
OBJECT_ID      = 2025-311D
CENTER_NAME    = EARTH
REF_FRAME      = TEME
TIME_SYSTEM    = UTC
MEAN_ELEMENT_THEORY = SGP/SGP4

EPOCH          = 2026-01-14T04:59:15.198720
MEAN_MOTION    = 13.90205350
ECCENTRICITY   = .00093721
INCLINATION    = 50.0067
RA_OF_ASC_NODE = 319.2047
ARG_OF_PERICENTER = 327.9544
MEAN_ANOMALY   = 32.0784

EPHEMERIS_TYPE = 0
CLASSIFICATION_TYPE = U
NORAD_CAT_ID   = 67239
ELEMENT_SET_NO = 999
REV_AT_EPOCH   = 268
BSTAR          = .91747852E-4
MEAN_MOTION_DOT = -.32E-6
MEAN_MOTION_DDOT = 0

CCSDS_OMM_VERS = 2.0
CREATION_DATE  = 
ORIGINATOR     = 

OBJECT_NAME    = HULIANWANG DIGUI-132
OBJECT_ID      = 2025-311E
CENTER_NAME    = EARTH
REF_FRAME      = TEME
TIME_SYSTEM    = UTC
MEAN_ELEMENT_THEORY = SGP/SGP4

EPOCH          = 2026-01-14T04:50:22.387200
MEAN_MOTION    = 13.90231207
ECCENTRICITY   = .00084595
INCLINATION    = 50.0079
RA_OF_ASC_NODE = 319.1758
ARG_OF_PERICENTER = 334.6471
MEAN_ANOMALY   = 25.4012

EPHEMERIS_TYPE = 0
CLASSIFICATION_TYPE = U
NORAD_CAT_ID   = 67240
ELEMENT_SET_NO = 999
REV_AT_EPOCH   = 268
BSTAR          = .84030819E-4
MEAN_MOTION_DOT = -.42E-6
MEAN_MOTION_DDOT = 0

CCSDS_OMM_VERS = 2.0
CREATION_DATE  = 
ORIGINATOR     = 

OBJECT_NAME    = HULIANWANG DIGUI-133
OBJECT_ID      = 2025-311F
CENTER_NAME    = EARTH
REF_FRAME      = TEME
TIME_SYSTEM    = UTC
MEAN_ELEMENT_THEORY = SGP/SGP4

EPOCH          = 2026-01-14T04:47:43.724832
MEAN_MOTION    = 13.90209195
ECCENTRICITY   = .00075774
INCLINATION    = 50.0123
RA_OF_ASC_NODE = 319.1773
ARG_OF_PERICENTER = 338.8099
MEAN_ANOMALY   = 21.2485

EPHEMERIS_TYPE = 0
CLASSIFICATION_TYPE = U
NORAD_CAT_ID   = 67241
ELEMENT_SET_NO = 999
REV_AT_EPOCH   = 268
BSTAR          = .88856602E-4
MEAN_MOTION_DOT = -.36E-6
MEAN_MOTION_DDOT = 0

CCSDS_OMM_VERS = 2.0
CREATION_DATE  = 
ORIGINATOR     = 

OBJECT_NAME    = HULIANWANG DIGUI-134
OBJECT_ID      = 2025-311G
CENTER_NAME    = EARTH
REF_FRAME      = TEME
TIME_SYSTEM    = UTC
MEAN_ELEMENT_THEORY = SGP/SGP4

EPOCH          = 2026-01-14T04:49:17.261472
MEAN_MOTION    = 13.90195273
ECCENTRICITY   = .00066986
INCLINATION    = 50.0054
RA_OF_ASC_NODE = 319.1652
ARG_OF_PERICENTER = 327.8064
MEAN_ANOMALY   = 32.2425

EPHEMERIS_TYPE = 0
CLASSIFICATION_TYPE = U
NORAD_CAT_ID   = 67242
ELEMENT_SET_NO = 999
REV_AT_EPOCH   = 268
BSTAR          = .92023744E-4
MEAN_MOTION_DOT = -.32E-6
MEAN_MOTION_DDOT = 0

CCSDS_OMM_VERS = 2.0
CREATION_DATE  = 
ORIGINATOR     = 

OBJECT_NAME    = HULIANWANG DIGUI-135
OBJECT_ID      = 2025-311H
CENTER_NAME    = EARTH
REF_FRAME      = TEME
TIME_SYSTEM    = UTC
MEAN_ELEMENT_THEORY = SGP/SGP4

EPOCH          = 2026-01-14T04:52:16.809312
MEAN_MOTION    = 13.90184276
ECCENTRICITY   = .00079154
INCLINATION    = 50.0040
RA_OF_ASC_NODE = 319.1725
ARG_OF_PERICENTER = 330.2584
MEAN_ANOMALY   = 29.7864

EPHEMERIS_TYPE = 0
CLASSIFICATION_TYPE = U
NORAD_CAT_ID   = 67243
ELEMENT_SET_NO = 999
REV_AT_EPOCH   = 268
BSTAR          = .87437829E-4
MEAN_MOTION_DOT = -.37E-6
MEAN_MOTION_DDOT = 0

CCSDS_OMM_VERS = 2.0
CREATION_DATE  = 
ORIGINATOR     = 

OBJECT_NAME    = HULIANWANG DIGUI-136
OBJECT_ID      = 2025-311J
CENTER_NAME    = EARTH
REF_FRAME      = TEME
TIME_SYSTEM    = UTC
MEAN_ELEMENT_THEORY = SGP/SGP4

EPOCH          = 2026-01-14T04:46:05.893248
MEAN_MOTION    = 13.90230154
ECCENTRICITY   = .00068387
INCLINATION    = 50.0112
RA_OF_ASC_NODE = 319.1680
ARG_OF_PERICENTER = 336.5594
MEAN_ANOMALY   = 23.4992

EPHEMERIS_TYPE = 0
CLASSIFICATION_TYPE = U
NORAD_CAT_ID   = 67244
ELEMENT_SET_NO = 999
REV_AT_EPOCH   = 268
BSTAR          = .89201017E-4
MEAN_MOTION_DOT = -.35E-6
MEAN_MOTION_DDOT = 0

CCSDS_OMM_VERS = 2.0
CREATION_DATE  = 
ORIGINATOR     = 

OBJECT_NAME    = CZ-8A R/B
OBJECT_ID      = 2025-311K
CENTER_NAME    = EARTH
REF_FRAME      = TEME
TIME_SYSTEM    = UTC
MEAN_ELEMENT_THEORY = SGP/SGP4

EPOCH          = 2026-01-14T04:38:11.152032
MEAN_MOTION    = 14.12608688
ECCENTRICITY   = .00889597
INCLINATION    = 50.0040
RA_OF_ASC_NODE = 316.4536
ARG_OF_PERICENTER = 148.4146
MEAN_ANOMALY   = 212.2143

EPHEMERIS_TYPE = 0
CLASSIFICATION_TYPE = U
NORAD_CAT_ID   = 67245
ELEMENT_SET_NO = 999
REV_AT_EPOCH   = 272
BSTAR          = -.57106714E-4
MEAN_MOTION_DOT = -.266E-5
MEAN_MOTION_DDOT = 0

CCSDS_OMM_VERS = 2.0
CREATION_DATE  = 
ORIGINATOR     = 

OBJECT_NAME    = FENGYUN 4C
OBJECT_ID      = 2025-312A
CENTER_NAME    = EARTH
REF_FRAME      = TEME
TIME_SYSTEM    = UTC
MEAN_ELEMENT_THEORY = SGP/SGP4

EPOCH          = 2026-01-14T06:11:35.422368
MEAN_MOTION    = 1.00270931
ECCENTRICITY   = .00025297
INCLINATION    = 0.0769
RA_OF_ASC_NODE = 241.6082
ARG_OF_PERICENTER = 48.2009
MEAN_ANOMALY   = 49.8908

EPHEMERIS_TYPE = 0
CLASSIFICATION_TYPE = U
NORAD_CAT_ID   = 67246
ELEMENT_SET_NO = 999
REV_AT_EPOCH   = 23
BSTAR          = 0
MEAN_MOTION_DOT = -.303E-5
MEAN_MOTION_DDOT = 0

CCSDS_OMM_VERS = 2.0
CREATION_DATE  = 
ORIGINATOR     = 

OBJECT_NAME    = CZ-3B R/B
OBJECT_ID      = 2025-312B
CENTER_NAME    = EARTH
REF_FRAME      = TEME
TIME_SYSTEM    = UTC
MEAN_ELEMENT_THEORY = SGP/SGP4

EPOCH          = 2026-01-13T07:12:36.188640
MEAN_MOTION    = 2.43501412
ECCENTRICITY   = .720982
INCLINATION    = 28.4106
RA_OF_ASC_NODE = 327.3433
ARG_OF_PERICENTER = 190.3323
MEAN_ANOMALY   = 137.2956

EPHEMERIS_TYPE = 0
CLASSIFICATION_TYPE = U
NORAD_CAT_ID   = 67247
ELEMENT_SET_NO = 999
REV_AT_EPOCH   = 42
BSTAR          = .51307E-3
MEAN_MOTION_DOT = .172942E-2
MEAN_MOTION_DDOT = -.31868E-6

CCSDS_OMM_VERS = 2.0
CREATION_DATE  = 
ORIGINATOR     = 

OBJECT_NAME    = 2025-313A
OBJECT_ID      = 2025-313A
CENTER_NAME    = EARTH
REF_FRAME      = TEME
TIME_SYSTEM    = UTC
MEAN_ELEMENT_THEORY = SGP/SGP4

EPOCH          = 2026-01-14T04:26:55.714848
MEAN_MOTION    = 14.66791620
ECCENTRICITY   = .02805353
INCLINATION    = 97.5633
RA_OF_ASC_NODE = 90.4285
ARG_OF_PERICENTER = 111.3504
MEAN_ANOMALY   = 251.7888

EPHEMERIS_TYPE = 0
CLASSIFICATION_TYPE = U
NORAD_CAT_ID   = 67248
ELEMENT_SET_NO = 999
REV_AT_EPOCH   = 244
BSTAR          = .13051754E-3
MEAN_MOTION_DOT = .1262E-4
MEAN_MOTION_DDOT = 0

