HULIANWANG DIGUI-129    
1 67237U 25311B   26014.19803373 -.00000040  00000+0  85742-4 0  9998
2 67237  50.0092 319.1603 0007804 343.1464  16.9175 13.90166706  2684
HULIANWANG DIGUI-130    
1 67238U 25311C   26014.20471630 -.00000032  00000+0  91902-4 0  9994
2 67238  50.0072 319.1899 0007762 320.5877  39.4456 13.90218315  2686
HULIANWANG DIGUI-131    
1 67239U 25311D   26014.20781480 -.00000032  00000+0  91748-4 0  9990
2 67239  50.0067 319.2047 0009372 327.9544  32.0784 13.90205350  2686
HULIANWANG DIGUI-132    
1 67240U 25311E   26014.20164800 -.00000042  00000+0  84031-4 0  9991
2 67240  50.0079 319.1758 0008459 334.6471  25.4012 13.90231207  2688
HULIANWANG DIGUI-133    
1 67241U 25311F   26014.19981163 -.00000036  00000+0  88857-4 0  9992
2 67241  50.0123 319.1773 0007577 338.8099  21.2485 13.90209195  2687
HULIANWANG DIGUI-134    
1 67242U 25311G   26014.20089423 -.00000032  00000+0  92024-4 0  9990
2 67242  50.0054 319.1652 0006698 327.8064  32.2425 13.90195273  2687
HULIANWANG DIGUI-135    
1 67243U 25311H   26014.20297233 -.00000037  00000+0  87438-4 0  9999
2 67243  50.0040 319.1725 0007915 330.2584  29.7864 13.90184276  2681
HULIANWANG DIGUI-136    
1 67244U 25311J   26014.19867932 -.00000035  00000+0  89201-4 0  9995
2 67244  50.0112 319.1680 0006838 336.5594  23.4992 13.90230154  2685
CZ-8A R/B               
1 67245U 25311K   26014.19318463 -.00000266  00000+0 -57107-4 0  9993
2 67245  50.0040 316.4536 0088959 148.4146 212.2143 14.12608688  2720
FENGYUN 4C              
1 67246U 25312A   26014.25804887 -.00000303  00000+0  00000+0 0  9998
2 67246   0.0769 241.6082 0002529  48.2009  49.8908  1.00270931   239
CZ-3B R/B               
1 67247U 25312B   26013.30041885  .00172942 -31868-6  51307-3 0  9997
2 67247  28.4106 327.3433 7209820 190.3323 137.2956  2.43501412   424
2025-313A               
1 67248U 25313A   26014.18536707  .00001262  00000+0  13052-3 0  9995
2 67248  97.5633  90.4285 0280535 111.3504 251.7888 14.66791620  2449
